{"fetched_at":"2026-03-29T16:36:15Z","count":15609,"tles":[{"name":"STARLINK-33621","line1":"1 63375U 25063N   26087.93741479  .00013382  00000+0  46304-3 0  9993","line2":"2 63375  53.1592 320.4137 0001338 100.2811 259.8340 15.30206844 57690","category":"Starlink"}]}