{
  "norad_id": 63375,
  "name": "STARLINK-33621",
  "history": [
    {
      "epoch": "2026-03-28T22:29:52.637856",
      "apogee_km": 476.1116103178301,
      "perigee_km": 474.27765877242564,
      "latitude_deg": -11.518479617058347,
      "longitude_deg": -112.50818016007543,
      "semi_major_axis_km": 6853.331634545128,
      "eccentricity": 0.0001338,
      "inclination_deg": 53.1592,
      "raan_deg": 320.4137,
      "arg_perigee_deg": 100.2811,
      "mean_anomaly_deg": 259.834,
      "mean_motion_rev_day": 15.30206844
    }
  ]
}